
    {
        "ARG_OF_PERICENTER": 313.5909,
        "BSTAR": 0.00024604,
        "CLASSIFICATION_TYPE": "U",
        "ECCENTRICITY": 0.0011639,
        "ELEMENT_SET_NO": 999,
        "EPHEMERIS_TYPE": 0,
        "EPOCH": "2026-05-03T21:56:37.434624",
        "INCLINATION": 98.116,
        "MEAN_ANOMALY": 46.4342,
        "MEAN_MOTION": 14.93443083,
        "MEAN_MOTION_DDOT": 0,
        "MEAN_MOTION_DOT": 2.527e-05,
        "NORAD_CAT_ID": 39151,
        "OBJECT_ID": "2013-018B",
        "OBJECT_NAME": "NEE-01 PEGASO",
        "RA_OF_ASC_NODE": 266.6238,
        "REV_AT_EPOCH": 70409
    },
    {
        "ARG_OF_PERICENTER": 336.0959,
        "BSTAR": 0.00029169,
        "CLASSIFICATION_TYPE": "U",
        "ECCENTRICITY": 0.0420583,
        "ELEMENT_SET_NO": 999,
        "EPHEMERIS_TYPE": 0,
        "EPOCH": "2026-05-03T22:36:52.788096",
        "INCLINATION": 80.993,
        "MEAN_ANOMALY": 22.1205,
        "MEAN_MOTION": 14.90183481,
        "MEAN_MOTION_DDOT": 0,
        "MEAN_MOTION_DOT": 0.00017015,
        "NORAD_CAT_ID": 39269,
        "OBJECT_ID": "2013-055E",
        "OBJECT_NAME": "POPACS 2",
        "RA_OF_ASC_NODE": 194.801,
        "REV_AT_EPOCH": 65662
    },
    {
        "ARG_OF_PERICENTER": 204.8334,
        "BSTAR": 0.00033275459,
        "CLASSIFICATION_TYPE": "U",
        "ECCENTRICITY": 0.05552199,
        "ELEMENT_SET_NO": 999,
        "EPHEMERIS_TYPE": 0,
        "EPOCH": "2026-05-03T20:22:20.964000",
        "INCLINATION": 81.0005,
        "MEAN_ANOMALY": 152.5197,
        "MEAN_MOTION": 14.55021599,
        "MEAN_MOTION_DDOT": 0,
        "MEAN_MOTION_DOT": 0.00013805,
        "NORAD_CAT_ID": 39270,
        "OBJECT_ID": "2013-055F",
        "OBJECT_NAME": "POPACS 3",
        "RA_OF_ASC_NODE": 277.2228,
        "REV_AT_EPOCH": 63210
    },
    {
        "ARG_OF_PERICENTER": 41.0977,
        "BSTAR": 0.00043373,
        "CLASSIFICATION_TYPE": "U",
        "ECCENTRICITY": 0.0043172,
        "ELEMENT_SET_NO": 999,
        "EPHEMERIS_TYPE": 0,
        "EPOCH": "2026-05-04T03:26:09.667680",
        "INCLINATION": 97.813,
        "MEAN_ANOMALY": 319.3485,
        "MEAN_MOTION": 15.00838926,
        "MEAN_MOTION_DDOT": 0,
        "MEAN_MOTION_DOT": 5.561e-05,
        "NORAD_CAT_ID": 39417,
        "OBJECT_ID": "2013-066B",
        "OBJECT_NAME": "ZACUBE-1 (TSHEPISOSAT)",
        "RA_OF_ASC_NODE": 86.2428,
        "REV_AT_EPOCH": 67412
    },
    {
        "ARG_OF_PERICENTER": 11.1239,
        "BSTAR": 0.00010132,
        "CLASSIFICATION_TYPE": "U",
        "ECCENTRICITY": 0.0163388,
        "ELEMENT_SET_NO": 999,
        "EPHEMERIS_TYPE": 0,
        "EPOCH": "2026-05-04T03:40:24.439296",
        "INCLINATION": 97.7145,
        "MEAN_ANOMALY": 349.3503,
        "MEAN_MOTION": 14.58009253,
        "MEAN_MOTION_DDOT": 0,
        "MEAN_MOTION_DOT": 5.09e-06,
        "NORAD_CAT_ID": 39423,
        "OBJECT_ID": "2013-066H",
        "OBJECT_NAME": "WNISAT-1",
        "RA_OF_ASC_NODE": 276.4494,
        "REV_AT_EPOCH": 66031
    },
    {
        "ARG_OF_PERICENTER": 18.7382,
        "BSTAR": 0.00037222,
        "CLASSIFICATION_TYPE": "U",
        "ECCENTRICITY": 0.0090996,
        "ELEMENT_SET_NO": 999,
        "EPHEMERIS_TYPE": 0,
        "EPOCH": "2026-05-04T04:41:02.523840",
        "INCLINATION": 97.8277,
        "MEAN_ANOMALY": 341.7144,
        "MEAN_MOTION": 14.81505802,
        "MEAN_MOTION_DDOT": 0,
        "MEAN_MOTION_DOT": 3.078e-05,
        "NORAD_CAT_ID": 39427,
        "OBJECT_ID": "2013-066M",
        "OBJECT_NAME": "TRITON-1",
        "RA_OF_ASC_NODE": 35.0058,
        "REV_AT_EPOCH": 66757
    },
    {
        "ARG_OF_PERICENTER": 218.3181,
        "BSTAR": 0.00028295,
        "CLASSIFICATION_TYPE": "U",
        "ECCENTRICITY": 0.0127911,
        "ELEMENT_SET_NO": 999,
        "EPHEMERIS_TYPE": 0,
        "EPOCH": "2026-05-04T04:39:52.654752",
        "INCLINATION": 97.6507,
        "MEAN_ANOMALY": 140.8886,
        "MEAN_MOTION": 14.69290558,
        "MEAN_MOTION_DDOT": 0,
        "MEAN_MOTION_DOT": 1.84e-05,
        "NORAD_CAT_ID": 39430,
        "OBJECT_ID": "2013-066Q",
        "OBJECT_NAME": "GOMX-1",
        "RA_OF_ASC_NODE": 327.4294,
        "REV_AT_EPOCH": 66345
    },
    {
        "ARG_OF_PERICENTER": 172.0826,
        "BSTAR": 0.0002839,
        "CLASSIFICATION_TYPE": "U",
        "ECCENTRICITY": 0.0058093,
        "ELEMENT_SET_NO": 999,
        "EPHEMERIS_TYPE": 0,
        "EPOCH": "2026-05-04T02:45:18.364032",
        "INCLINATION": 97.8882,
        "MEAN_ANOMALY": 188.1324,
        "MEAN_MOTION": 14.9344283,
        "MEAN_MOTION_DDOT": 0,
        "MEAN_MOTION_DOT": 3.022e-05,
        "NORAD_CAT_ID": 39440,
        "OBJECT_ID": "2013-066AA",
        "OBJECT_NAME": "CUBEBUG-2 (LO-74)",
        "RA_OF_ASC_NODE": 72.9277,
        "REV_AT_EPOCH": 67041
    },
    {
        "ARG_OF_PERICENTER": 214.3058,
        "BSTAR": 0.00020250001,
        "CLASSIFICATION_TYPE": "U",
        "ECCENTRICITY": 0.00653438,
        "ELEMENT_SET_NO": 999,
        "EPHEMERIS_TYPE": 0,
        "EPOCH": "2026-05-03T18:47:31.912800",
        "INCLINATION": 97.8876,
        "MEAN_ANOMALY": 145.393,
        "MEAN_MOTION": 14.86458471,
        "MEAN_MOTION_DDOT": 0,
        "MEAN_MOTION_DOT": 1.801e-05,
        "NORAD_CAT_ID": 39441,
        "OBJECT_ID": "2013-066AB",
        "OBJECT_NAME": "NEE-02 KRYSAOR",
        "RA_OF_ASC_NODE": 63.3268,
        "REV_AT_EPOCH": 66960
    },
    {
        "ARG_OF_PERICENTER": 357.0543,
        "BSTAR": 0.00052258,
        "CLASSIFICATION_TYPE": "U",
        "ECCENTRICITY": 0.0036435,
        "ELEMENT_SET_NO": 999,
        "EPHEMERIS_TYPE": 0,
        "EPOCH": "2026-05-04T03:56:55.826592",
        "INCLINATION": 97.8259,
        "MEAN_ANOMALY": 3.0465,
        "MEAN_MOTION": 15.08904484,
        "MEAN_MOTION_DDOT": 0,
        "MEAN_MOTION_DOT": 8.303e-05,
        "NORAD_CAT_ID": 39444,
        "OBJECT_ID": "2013-066AE",
        "OBJECT_NAME": "FUNCUBE-1 (AO-73)",
        "RA_OF_ASC_NODE": 94.719,
        "REV_AT_EPOCH": 67302
    },
    {
        "ARG_OF_PERICENTER": 106.9054,
        "BSTAR": 0.00046152358,
        "CLASSIFICATION_TYPE": "U",
        "ECCENTRICITY": 0.0051313,
        "ELEMENT_SET_NO": 999,
        "EPHEMERIS_TYPE": 0,
        "EPOCH": "2026-05-03T19:52:13.498464",
        "INCLINATION": 97.8683,
        "MEAN_ANOMALY": 253.7802,
        "MEAN_MOTION": 14.96661498,
        "MEAN_MOTION_DDOT": 0,
        "MEAN_MOTION_DOT": 5.346e-05,
        "NORAD_CAT_ID": 39446,
        "OBJECT_ID": "2013-066AG",
        "OBJECT_NAME": "UWE-3",
        "RA_OF_ASC_NODE": 79.6263,
        "REV_AT_EPOCH": 67094
    },
    {
        "ARG_OF_PERICENTER": 58.5405,
        "BSTAR": 0.00013776,
        "CLASSIFICATION_TYPE": "U",
        "ECCENTRICITY": 0.0079822,
        "ELEMENT_SET_NO": 999,
        "EPHEMERIS_TYPE": 0,
        "EPOCH": "2026-05-04T03:28:42.712320",
        "INCLINATION": 97.9673,
        "MEAN_ANOMALY": 302.3574,
        "MEAN_MOTION": 14.72614398,
        "MEAN_MOTION_DDOT": 0,
        "MEAN_MOTION_DOT": 8.69e-06,
        "NORAD_CAT_ID": 40020,
        "OBJECT_ID": "2014-033L",
        "OBJECT_NAME": "BRITE-CA1 (TORONTO)",
        "RA_OF_ASC_NODE": 253.9031,
        "REV_AT_EPOCH": 63573
    },
    {
        "ARG_OF_PERICENTER": 210.768,
        "BSTAR": 0.0010193,
        "CLASSIFICATION_TYPE": "U",
        "ECCENTRICITY": 0.0005133,
        "ELEMENT_SET_NO": 999,
        "EPHEMERIS_TYPE": 0,
        "EPOCH": "2026-05-04T02:17:54.972096",
        "INCLINATION": 98.0515,
        "MEAN_ANOMALY": 149.3273,
        "MEAN_MOTION": 15.57185713,
        "MEAN_MOTION_DDOT": 0,
        "MEAN_MOTION_DOT": 0.00074568,
        "NORAD_CAT_ID": 40021,
        "OBJECT_ID": "2014-033M",
        "OBJECT_NAME": "DUCHIFAT-1",
        "RA_OF_ASC_NODE": 177.3522,
        "REV_AT_EPOCH": 64887
    }