NEE-01 PEGASO           
1 39151U 13018B   26123.91432216  .00002527  00000+0  24604-3 0  9998
2 39151  98.1160 266.6238 0011639 313.5909  46.4342 14.93443083704091
POPACS 2                
1 39269U 13055E   26123.94227764  .00017015  00000+0  29169-3 0  9991
2 39269  80.9930 194.8010 0420583 336.0959  22.1205 14.90183481656626
POPACS 3                
1 39270U 13055F   26123.84885375  .00013805  00000+0  33275-3 0  9996
2 39270  81.0005 277.2228 0555219 204.8334 152.5197 14.55021599632101
ZACUBE-1 (TSHEPISOSAT)  
1 39417U 13066B   26124.14316745  .00005561  00000+0  43373-3 0  9995
2 39417  97.8130  86.2428 0043172  41.0977 319.3485 15.00838926674124
WNISAT-1                
1 39423U 13066H   26124.15306064  .00000509  00000+0  10132-3 0  9990
2 39423  97.7145 276.4494 0163388  11.1239 349.3503 14.58009253660318
TRITON-1                
1 39427U 13066M   26124.19516810  .00003078  00000+0  37222-3 0  9993
2 39427  97.8277  35.0058 0090996  18.7382 341.7144 14.81505802667579
GOMX-1                  
1 39430U 13066Q   26124.19435943  .00001840  00000+0  28295-3 0  9999
2 39430  97.6507 327.4294 0127911 218.3181 140.8886 14.69290558663459
CUBEBUG-2 (LO-74)       
1 39440U 13066AA  26124.11479588  .00003022  00000+0  28390-3 0  9995
2 39440  97.8882  72.9277 0058093 172.0826 188.1324 14.93442830670412
NEE-02 KRYSAOR          
1 39441U 13066AB  26123.78300825  .00001801  00000+0  20250-3 0  9995
2 39441  97.8876  63.3268 0065343 214.3058 145.3930 14.86458471669600
FUNCUBE-1 (AO-73)       
1 39444U 13066AE  26124.16453503  .00008303  00000+0  52258-3 0  9990
2 39444  97.8259  94.7190 0036435 357.0543   3.0465 15.08904484673023
UWE-3                   
1 39446U 13066AG  26123.82793401  .00005346  00000+0  46152-3 0  9998
2 39446  97.8683  79.6263 0051313 106.9054 253.7802 14.96661498670947
BRITE-CA1 (TORONTO)     
1 40020U 14033L   26124.14493880  .00000869  00000+0  13776-3 0  9998
2 40020  97.9673 253.9031 0079822  58.5405 302.3574 14.72614398635730
DUCHIFAT-1              
1 40021U 14033M   26124.09577514  .00074568  00000+0  10193-2 0  9996
2 40021  98.0515 177.3522 0005133 210.7680 149.3273 15.57185713648875
